     2              NAVIGATION DATA                         RINEX VERSION / TYPE
CCRINEXN V1.6.0 UX  CDDIS               14-MAR-19 12:26     PGM / RUN BY / DATE 
IGS BROADCAST EPHEMERIS FILE                                COMMENT             
    0.1118D-07  0.7451D-08 -0.5960D-07 -0.5960D-07          ION ALPHA           
    0.9011D+05  0.0000D+00 -0.1966D+06 -0.6554D+05          ION BETA            
    0.931322574615D-09 0.000000000000D+00   589824     2044 DELTA-UTC: A0,A1,T,W
    18                                                      LEAP SECONDS        
                                                            END OF HEADER       
25 19  3 14 18  0  0.0-0.733024906367D-03-0.500222085975D-11 0.000000000000D+00
    0.490000000000D+02 0.811562500000D+02 0.431982279510D-08 0.212085427508D+01
    0.399537384510D-05 0.832804513630D-02 0.606290996075D-05 0.515374676704D+04
    0.410400000000D+06-0.104308128357D-06 0.258408135128D+01-0.178813934326D-06
    0.971138282939D+00 0.267562500000D+03 0.869490609362D+00-0.805569269479D-08
    0.221437795202D-10 0.100000000000D+01 0.204400000000D+04 0.000000000000D+00
    0.200000000000D+01 0.000000000000D+00 0.558793544769D-08 0.490000000000D+02
    0.403260000000D+06 0.400000000000D+01 0.000000000000D+00 0.000000000000D+00
26 19  3 14 18  0  0.0 0.149118714035D-03 0.101181285572D-10 0.000000000000D+00
    0.120000000000D+02 0.851562500000D+02 0.480055710533D-08 0.145490743099D+01
    0.467151403427D-05 0.369549985044D-02 0.650808215141D-05 0.515357491493D+04
    0.410400000000D+06 0.651925802231D-07 0.255687364535D+01 0.298023223877D-07
    0.952458656492D+00 0.247218750000D+03 0.135069669714D+00-0.837606318237D-08
   -0.485734518507D-10 0.100000000000D+01 0.204400000000D+04 0.000000000000D+00
    0.200000000000D+01 0.000000000000D+00 0.745058059692D-08 0.120000000000D+02
    0.403260000000D+06 0.400000000000D+01 0.000000000000D+00 0.000000000000D+00
29 19  3 14 18  0  0.0 0.249438453466D-03-0.875388650456D-11 0.000000000000D+00
    0.151000000000D+03-0.404375000000D+02 0.400659546221D-08 0.522152215381D+00
   -0.213272869587D-05 0.788546865806D-03 0.474788248539D-05 0.515355479050D+04
    0.410400000000D+06-0.577419996262D-07-0.259173374702D+01 0.130385160446D-07
    0.985518871525D+00 0.300875000000D+03 0.144711742001D+01-0.806247869174D-08
   -0.175721605225D-09 0.100000000000D+01 0.204400000000D+04 0.000000000000D+00
    0.290000000000D+01 0.000000000000D+00-0.102445483208D-07 0.151000000000D+03
    0.403260000000D+06 0.400000000000D+01 0.000000000000D+00 0.000000000000D+00
31 19  3 14 18  0  0.0 0.521908514202D-04-0.272848410532D-11 0.000000000000D+00
    0.430000000000D+02 0.529687500000D+02 0.459376277723D-08 0.277862413710D+01
    0.274367630482D-05 0.922896352131D-02 0.102575868368D-04 0.515357921410D+04
    0.410400000000D+06-0.199303030968D-06 0.156237169903D+01 0.000000000000D+00
    0.960339127008D+00 0.181937500000D+03-0.515434023039D-02-0.785711299458D-08
   -0.281083136812D-09 0.100000000000D+01 0.204400000000D+04 0.000000000000D+00
    0.200000000000D+01 0.000000000000D+00-0.135041773319D-07 0.430000000000D+02
    0.403260000000D+06 0.400000000000D+01 0.000000000000D+00 0.000000000000D+00
